{
  "norad_id": 58867,
  "name": "STARLINK-31198",
  "history": [
    {
      "epoch": "2026-03-28T20:12:19.739232Z",
      "apogee_km": 483.4359075577004,
      "perigee_km": 482.5707177642744,
      "latitude_deg": 1.37936370262628e-05,
      "longitude_deg": 11.21912229845702,
      "height_km": 482.5463432325848,
      "semi_major_axis_km": 6861.140312660987,
      "eccentricity": 6.305e-05,
      "inclination_deg": 43.0046,
      "raan_deg": 140.5579,
      "arg_perigee_deg": 302.6586,
      "mean_anomaly_deg": 57.4205,
      "mean_motion_rev_day": 15.2759529
    },
    {
      "epoch": "2026-03-29T04:03:06.897312Z",
      "apogee_km": 483.5882408048428,
      "perigee_km": 482.4204745457673,
      "latitude_deg": 4.366881121994504e-05,
      "longitude_deg": -108.64177935289378,
      "height_km": 482.4616225119648,
      "semi_major_axis_km": 6861.141357675305,
      "eccentricity": 8.51e-05,
      "inclination_deg": 42.9959,
      "raan_deg": 138.7157,
      "arg_perigee_deg": 57.1223,
      "mean_anomaly_deg": 302.9711,
      "mean_motion_rev_day": 15.27594941
    },
    {
      "epoch": "2026-03-30T03:35:27.494592Z",
      "apogee_km": 483.44377329420513,
      "perigee_km": 482.6423874608172,
      "latitude_deg": 1.2822807310927714e-05,
      "longitude_deg": -108.23484828870644,
      "height_km": 482.7170380026934,
      "semi_major_axis_km": 6861.180080377511,
      "eccentricity": 5.84e-05,
      "inclination_deg": 42.9978,
      "raan_deg": 133.1752,
      "arg_perigee_deg": 284.7138,
      "mean_anomaly_deg": 75.3649,
      "mean_motion_rev_day": 15.27582009
    },
    {
      "epoch": "2026-03-30T03:35:27.495456Z",
      "apogee_km": 483.44370468240504,
      "perigee_km": 482.6424560726182,
      "latitude_deg": 1.2051563289651021e-05,
      "longitude_deg": -108.23485272110003,
      "height_km": 482.7170554282315,
      "semi_major_axis_km": 6861.180080377511,
      "eccentricity": 5.839e-05,
      "inclination_deg": 42.9978,
      "raan_deg": 133.1752,
      "arg_perigee_deg": 284.7138,
      "mean_anomaly_deg": 75.3649,
      "mean_motion_rev_day": 15.27582009
    },
    {
      "epoch": "2026-03-30T11:26:14.254368Z",
      "apogee_km": 483.4349499241116,
      "perigee_km": 482.62807650695777,
      "latitude_deg": -1.897171974756119e-05,
      "longitude_deg": 131.90154877911738,
      "height_km": 482.7870348358212,
      "semi_major_axis_km": 6861.168513215534,
      "eccentricity": 5.88e-05,
      "inclination_deg": 42.9986,
      "raan_deg": 131.3287,
      "arg_perigee_deg": 272.8857,
      "mean_anomaly_deg": 87.1927,
      "mean_motion_rev_day": 15.27585872
    },
    {
      "epoch": "2026-03-30T19:17:01.332960Z",
      "apogee_km": 483.43023114604694,
      "perigee_km": 482.66754172291076,
      "latitude_deg": 6.647972911290505e-06,
      "longitude_deg": 12.03687504239341,
      "height_km": 482.8351865987089,
      "semi_major_axis_km": 6861.185886434479,
      "eccentricity": 5.558e-05,
      "inclination_deg": 42.9982,
      "raan_deg": 129.4824,
      "arg_perigee_deg": 268.4148,
      "mean_anomaly_deg": 91.664,
      "mean_motion_rev_day": 15.2758007
    },
    {
      "epoch": "2026-03-31T10:58:35.268960Z",
      "apogee_km": 483.4595185739836,
      "perigee_km": 482.6503095996359,
      "latitude_deg": -1.9652985102310405e-05,
      "longitude_deg": 132.30706910972145,
      "height_km": 482.7940336331923,
      "semi_major_axis_km": 6861.191914086809,
      "eccentricity": 5.897e-05,
      "inclination_deg": 42.9996,
      "raan_deg": 125.7885,
      "arg_perigee_deg": 275.2223,
      "mean_anomaly_deg": 84.8561,
      "mean_motion_rev_day": 15.27578057
    },
    {
      "epoch": "2026-04-01T18:21:42.807456Z",
      "apogee_km": 483.6586363867291,
      "perigee_km": 482.42636854808643,
      "latitude_deg": 2.0277521366505912e-05,
      "longitude_deg": 12.85264929923074,
      "height_km": 482.90503778463136,
      "semi_major_axis_km": 6861.1795024674075,
      "eccentricity": 8.98e-05,
      "inclination_deg": 42.9985,
      "raan_deg": 118.4044,
      "arg_perigee_deg": 261.9336,
      "mean_anomaly_deg": 98.1414,
      "mean_motion_rev_day": 15.27582202
    },
    {
      "epoch": "2026-04-02T17:54:04.571136Z",
      "apogee_km": 483.15565005493136,
      "perigee_km": 482.99784213877047,
      "latitude_deg": -2.081432309003725e-05,
      "longitude_deg": 13.254496348589155,
      "height_km": 482.8108738904151,
      "semi_major_axis_km": 6861.213746096851,
      "eccentricity": 1.15e-05,
      "inclination_deg": 42.9978,
      "raan_deg": 112.8637,
      "arg_perigee_deg": 301.4292,
      "mean_anomaly_deg": 58.6548,
      "mean_motion_rev_day": 15.27570766
    },
    {
      "epoch": "2026-04-02T17:54:04.572000Z",
      "apogee_km": 483.15578727920547,
      "perigee_km": 482.99770491449544,
      "latitude_deg": -1.9471631215230028e-05,
      "longitude_deg": 13.254494170745481,
      "height_km": 482.81080234558607,
      "semi_major_axis_km": 6861.213746096851,
      "eccentricity": 1.152e-05,
      "inclination_deg": 42.9978,
      "raan_deg": 112.8637,
      "arg_perigee_deg": 301.4292,
      "mean_anomaly_deg": 58.6548,
      "mean_motion_rev_day": 15.27570766
    },
    {
      "epoch": "2026-04-03T09:35:37.300992Z",
      "apogee_km": 483.5238523991911,
      "perigee_km": 482.54366554456374,
      "latitude_deg": 2.6834197147844264e-05,
      "longitude_deg": 133.53150792048058,
      "height_km": 482.8810422473695,
      "semi_major_axis_km": 6861.170758971877,
      "eccentricity": 7.143e-05,
      "inclination_deg": 42.9986,
      "raan_deg": 109.1715,
      "arg_perigee_deg": 261.6279,
      "mean_anomaly_deg": 98.4492,
      "mean_motion_rev_day": 15.27585122
    },
    {
      "epoch": "2026-04-04T10:42:09.862272Z",
      "apogee_km": 483.605212667906,
      "perigee_km": 482.65918087105456,
      "latitude_deg": 3.336021671328637e-05,
      "longitude_deg": 109.9557505841008,
      "height_km": 482.7596053507124,
      "semi_major_axis_km": 6861.26919676948,
      "eccentricity": 6.894e-05,
      "inclination_deg": 42.998,
      "raan_deg": 103.2626,
      "arg_perigee_deg": 288.2887,
      "mean_anomaly_deg": 71.789,
      "mean_motion_rev_day": 15.27552248
    },
    {
      "epoch": "2026-04-05T07:06:09.216000Z",
      "apogee_km": 483.67938664360645,
      "perigee_km": 482.2920676281801,
      "latitude_deg": 2.0026629340899118e-05,
      "longitude_deg": 158.32373724688557,
      "height_km": 482.6351917352947,
      "semi_major_axis_km": 6861.122727135893,
      "eccentricity": 0.0001011,
      "inclination_deg": 43.0014,
      "raan_deg": 98.4657,
      "arg_perigee_deg": 280.5546,
      "mean_anomaly_deg": 79.5192,
      "mean_motion_rev_day": 15.27601163
    },
    {
      "epoch": "2026-04-06T00:21:53.712864Z",
      "apogee_km": 483.7181985484058,
      "perigee_km": 482.3922045435338,
      "latitude_deg": 1.803729542069992e-05,
      "longitude_deg": -105.38460971604385,
      "height_km": 482.4886255344221,
      "semi_major_axis_km": 6861.1922015459695,
      "eccentricity": 9.663e-05,
      "inclination_deg": 42.9996,
      "raan_deg": 94.4017,
      "arg_perigee_deg": 301.1326,
      "mean_anomaly_deg": 58.9431,
      "mean_motion_rev_day": 15.27577961
    },
    {
      "epoch": "2026-04-07T07:45:00.434880Z",
      "apogee_km": 483.69536643849915,
      "perigee_km": 482.30214421202345,
      "latitude_deg": 8.502883533668251e-06,
      "longitude_deg": 135.16172393848495,
      "height_km": 482.7041735852645,
      "semi_major_axis_km": 6861.135755325261,
      "eccentricity": 0.00010153,
      "inclination_deg": 43.0016,
      "raan_deg": 87.015,
      "arg_perigee_deg": 275.8611,
      "mean_anomaly_deg": 84.2125,
      "mean_motion_rev_day": 15.27596812
    },
    {
      "epoch": "2026-04-08T05:43:12.978624Z",
      "apogee_km": 484.00212451666266,
      "perigee_km": 482.1608479237002,
      "latitude_deg": 5.71152954218389e-05,
      "longitude_deg": 159.53802541403536,
      "height_km": 482.69847366019576,
      "semi_major_axis_km": 6861.218486220181,
      "eccentricity": 0.00013418,
      "inclination_deg": 43.0019,
      "raan_deg": 81.8458,
      "arg_perigee_deg": 280.0007,
      "mean_anomaly_deg": 80.0694,
      "mean_motion_rev_day": 15.27569183
    },
    {
      "epoch": "2026-04-09T14:40:29.881344Z",
      "apogee_km": 483.7650204978345,
      "perigee_km": 482.3447537771972,
      "latitude_deg": 2.6061403851030762e-05,
      "longitude_deg": 16.109258928254814,
      "height_km": 482.75881475147224,
      "semi_major_axis_km": 6861.191887137516,
      "eccentricity": 0.0001035,
      "inclination_deg": 43.0013,
      "raan_deg": 74.0909,
      "arg_perigee_deg": 275.8687,
      "mean_anomaly_deg": 84.2047,
      "mean_motion_rev_day": 15.27578066
    },
    {
      "epoch": "2026-04-10T04:47:54.132576Z",
      "apogee_km": 483.9545192719179,
      "perigee_km": 482.13150374286124,
      "latitude_deg": -2.034448358324348e-05,
      "longitude_deg": 160.3544334789242,
      "height_km": 482.67513520788765,
      "semi_major_axis_km": 6861.180011507389,
      "eccentricity": 0.00013285,
      "inclination_deg": 43.002,
      "raan_deg": 70.7672,
      "arg_perigee_deg": 279.1374,
      "mean_anomaly_deg": 80.9327,
      "mean_motion_rev_day": 15.27582032
    },
    {
      "epoch": "2026-04-11T21:35:58.526016Z",
      "apogee_km": 483.7385555942037,
      "perigee_km": 482.3827829347574,
      "latitude_deg": -3.8846807518213925e-05,
      "longitude_deg": -102.93914214257914,
      "height_km": 482.87393447242965,
      "semi_major_axis_km": 6861.19766926448,
      "eccentricity": 9.88e-05,
      "inclination_deg": 43.0009,
      "raan_deg": 61.1676,
      "arg_perigee_deg": 266.8866,
      "mean_anomaly_deg": 93.1872,
      "mean_motion_rev_day": 15.27576135
    }
  ]
}